DMSP 5D-3 F17 (USA 191) 
1 29522U 06050A   21362.69502673  .00000078  00000+0  63805-4 0  9993
2 29522  98.7754  15.8797 0010216  32.2901 327.8896 14.14061576781774
FENGYUN 3A              
1 32958U 08026A   21362.51017463  .00000065  00000+0  51462-4 0  9996
2 32958  98.4785 327.3653 0009177 151.3610 208.8072 14.18681219703985
FENGYUN 2E              
1 33463U 08066A   21362.58312146 -.00000190  00000+0  00000+0 0  9992
2 33463   5.5292  66.2396 0003585 333.9072 353.9076  1.00271807 47723
NOAA 19                 
1 33591U 09005A   21362.71150170  .00000103  00000+0  81051-4 0  9993
2 33591  99.1683  28.0895 0013182 309.9627  50.0385 14.12518293664342
GOES 14                 
1 35491U 09033A   21362.65277248 -.00000074  00000+0  00000+0 0  9992
2 35491   0.1215 291.9036 0014883 293.8122   2.2445  1.00270301 45790
METEOR-M 1              
1 35865U 09049A   21362.52114593  .00000070  00000+0  50534-4 0  9990
2 35865  98.5053 333.7324 0002674  28.1469 331.9853 14.22297390637246
DMSP 5D-3 F18 (USA 210) 
1 35951U 09057A   21362.66448853  .00000187  00000+0  12231-3 0  9999
2 35951  98.7028 341.4544 0010432 209.4564 150.6022 14.13425557628991
GOES 15                 
1 36411U 10008A   21362.68377142  .00000074  00000+0  00000+0 0  9995
2 36411   0.1460 274.6857 0000431  17.8851 282.8771  1.00264081 43302
COMS 1                  
1 36744U 10032A   21362.55882817 -.00000325  00000+0  00000+0 0  9997
2 36744   0.6470  96.3047 0000813 203.4357 126.8580  1.00270356 34728
FENGYUN 3B              
1 37214U 10059A   21362.28285385 -.00646526  00000+0 -35294+0 0  9999
2 37214  99.0861   0.2304 0020460 119.4541 240.7630 14.14878333576763
SUOMI NPP               
1 37849U 11061A   21362.76267255  .00000032  00000+0  36038-4 0  9992
2 37849  98.7170 298.8281 0001418  93.1445 296.3844 14.19571151526973
FENGYUN 2F              
1 38049U 12002A   21359.19392487 -.00000339  00000+0  00000+0 0  9996
2 38049   3.3683  80.9718 0003299   4.7065 190.1154  1.00264405 36492
