[
    {
        "OBJECT_NAME": "DMSP 5D-3 F17 (USA 191)",
        "OBJECT_ID": "2006-050A",
        "EPOCH": "2021-12-28T16:40:50.309472",
        "MEAN_MOTION": 14.14061576,
        "ECCENTRICITY": 0.0010216,
        "INCLINATION": 98.7754,
        "RA_OF_ASC_NODE": 15.8797,
        "ARG_OF_PERICENTER": 32.2901,
        "MEAN_ANOMALY": 327.8896,
        "EPHEMERIS_TYPE": 0,
        "CLASSIFICATION_TYPE": "U",
        "NORAD_CAT_ID": 29522,
        "ELEMENT_SET_NO": 999,
        "REV_AT_EPOCH": 78177,
        "BSTAR": 6.3805e-05,
        "MEAN_MOTION_DOT": 7.8e-07,
        "MEAN_MOTION_DDOT": 0
    },
    {
        "OBJECT_NAME": "FENGYUN 3A",
        "OBJECT_ID": "2008-026A",
        "EPOCH": "2021-12-28T12:14:39.088032",
        "MEAN_MOTION": 14.18681219,
        "ECCENTRICITY": 0.0009177,
        "INCLINATION": 98.4785,
        "RA_OF_ASC_NODE": 327.3653,
        "ARG_OF_PERICENTER": 151.361,
        "MEAN_ANOMALY": 208.8072,
        "EPHEMERIS_TYPE": 0,
        "CLASSIFICATION_TYPE": "U",
        "NORAD_CAT_ID": 32958,
        "ELEMENT_SET_NO": 999,
        "REV_AT_EPOCH": 70398,
        "BSTAR": 5.1462e-05,
        "MEAN_MOTION_DOT": 6.5e-07,
        "MEAN_MOTION_DDOT": 0
    },
    {
        "OBJECT_NAME": "FENGYUN 2E",
        "OBJECT_ID": "2008-066A",
        "EPOCH": "2021-12-28T13:59:41.694144",
        "MEAN_MOTION": 1.00271807,
        "ECCENTRICITY": 0.0003585,
        "INCLINATION": 5.5292,
        "RA_OF_ASC_NODE": 66.2396,
        "ARG_OF_PERICENTER": 333.9072,
        "MEAN_ANOMALY": 353.9076,
        "EPHEMERIS_TYPE": 0,
        "CLASSIFICATION_TYPE": "U",
        "NORAD_CAT_ID": 33463,
        "ELEMENT_SET_NO": 999,
        "REV_AT_EPOCH": 4772,
        "BSTAR": 0,
        "MEAN_MOTION_DOT": -1.9e-06,
        "MEAN_MOTION_DDOT": 0
    },
    {
        "OBJECT_NAME": "NOAA 19",
        "OBJECT_ID": "2009-005A",
        "EPOCH": "2021-12-28T17:04:33.746880",
        "MEAN_MOTION": 14.12518293,
        "ECCENTRICITY": 0.0013182,
        "INCLINATION": 99.1683,
        "RA_OF_ASC_NODE": 28.0895,
        "ARG_OF_PERICENTER": 309.9627,
        "MEAN_ANOMALY": 50.0385,
        "EPHEMERIS_TYPE": 0,
        "CLASSIFICATION_TYPE": "U",
        "NORAD_CAT_ID": 33591,
        "ELEMENT_SET_NO": 999,
        "REV_AT_EPOCH": 66434,
        "BSTAR": 8.1051e-05,
        "MEAN_MOTION_DOT": 1.03e-06,
        "MEAN_MOTION_DDOT": 0
    },
    {
        "OBJECT_NAME": "GOES 14",
        "OBJECT_ID": "2009-033A",
        "EPOCH": "2021-12-28T15:39:59.542272",
        "MEAN_MOTION": 1.00270301,
        "ECCENTRICITY": 0.0014883,
        "INCLINATION": 0.1215,
        "RA_OF_ASC_NODE": 291.9036,
        "ARG_OF_PERICENTER": 293.8122,
        "MEAN_ANOMALY": 2.2445,
        "EPHEMERIS_TYPE": 0,
        "CLASSIFICATION_TYPE": "U",
        "NORAD_CAT_ID": 35491,
        "ELEMENT_SET_NO": 999,
        "REV_AT_EPOCH": 4579,
        "BSTAR": 0,
        "MEAN_MOTION_DOT": -7.4e-07,
        "MEAN_MOTION_DDOT": 0
    },
    {
        "OBJECT_NAME": "METEOR-M 1",
        "OBJECT_ID": "2009-049A",
        "EPOCH": "2021-12-28T12:30:27.008352",
        "MEAN_MOTION": 14.2229739,
        "ECCENTRICITY": 0.0002674,
        "INCLINATION": 98.5053,
        "RA_OF_ASC_NODE": 333.7324,
        "ARG_OF_PERICENTER": 28.1469,
        "MEAN_ANOMALY": 331.9853,
        "EPHEMERIS_TYPE": 0,
        "CLASSIFICATION_TYPE": "U",
        "NORAD_CAT_ID": 35865,
        "ELEMENT_SET_NO": 999,
        "REV_AT_EPOCH": 63724,
        "BSTAR": 5.0534e-05,
        "MEAN_MOTION_DOT": 7e-07,
        "MEAN_MOTION_DDOT": 0
    },
    {
        "OBJECT_NAME": "DMSP 5D-3 F18 (USA 210)",
        "OBJECT_ID": "2009-057A",
        "EPOCH": "2021-12-28T15:56:51.808992",
        "MEAN_MOTION": 14.13425557,
        "ECCENTRICITY": 0.0010432,
        "INCLINATION": 98.7028,
        "RA_OF_ASC_NODE": 341.4544,
        "ARG_OF_PERICENTER": 209.4564,
        "MEAN_ANOMALY": 150.6022,
        "EPHEMERIS_TYPE": 0,
        "CLASSIFICATION_TYPE": "U",
        "NORAD_CAT_ID": 35951,
        "ELEMENT_SET_NO": 999,
        "REV_AT_EPOCH": 62899,
        "BSTAR": 0.00012231,
        "MEAN_MOTION_DOT": 1.87e-06,
        "MEAN_MOTION_DDOT": 0
    },
    {
        "OBJECT_NAME": "GOES 15",
        "OBJECT_ID": "2010-008A",
        "EPOCH": "2021-12-28T16:24:37.850688",
        "MEAN_MOTION": 1.00264081,
        "ECCENTRICITY": 4.31e-05,
        "INCLINATION": 0.146,
        "RA_OF_ASC_NODE": 274.6857,
        "ARG_OF_PERICENTER": 17.8851,
        "MEAN_ANOMALY": 282.8771,
        "EPHEMERIS_TYPE": 0,
        "CLASSIFICATION_TYPE": "U",
        "NORAD_CAT_ID": 36411,
        "ELEMENT_SET_NO": 999,
        "REV_AT_EPOCH": 4330,
        "BSTAR": 0,
        "MEAN_MOTION_DOT": 7.4e-07,
        "MEAN_MOTION_DDOT": 0
    },
    {
        "OBJECT_NAME": "COMS 1",
        "OBJECT_ID": "2010-032A",
        "EPOCH": "2021-12-28T13:24:42.753888",
        "MEAN_MOTION": 1.00270356,
        "ECCENTRICITY": 8.13e-05,
        "INCLINATION": 0.647,
        "RA_OF_ASC_NODE": 96.3047,
        "ARG_OF_PERICENTER": 203.4357,
        "MEAN_ANOMALY": 126.858,
        "EPHEMERIS_TYPE": 0,
        "CLASSIFICATION_TYPE": "U",
        "NORAD_CAT_ID": 36744,
        "ELEMENT_SET_NO": 999,
        "REV_AT_EPOCH": 3472,
        "BSTAR": 0,
        "MEAN_MOTION_DOT": -3.25e-06,
        "MEAN_MOTION_DDOT": 0
    },
    {
        "OBJECT_NAME": "FENGYUN 3B",
        "OBJECT_ID": "2010-059A",
        "EPOCH": "2021-12-28T06:47:18.572640",
        "MEAN_MOTION": 14.14878333,
        "ECCENTRICITY": 0.002046,
        "INCLINATION": 99.0861,
        "RA_OF_ASC_NODE": 0.2304,
        "ARG_OF_PERICENTER": 119.4541,
        "MEAN_ANOMALY": 240.763,
        "EPHEMERIS_TYPE": 0,
        "CLASSIFICATION_TYPE": "U",
        "NORAD_CAT_ID": 37214,
        "ELEMENT_SET_NO": 999,
        "REV_AT_EPOCH": 57676,
        "BSTAR": -0.35294,
        "MEAN_MOTION_DOT": -0.00646526,
        "MEAN_MOTION_DDOT": 0
    },
    {
        "OBJECT_NAME": "SUOMI NPP",
        "OBJECT_ID": "2011-061A",
        "EPOCH": "2021-12-28T18:18:14.908320",
        "MEAN_MOTION": 14.19571151,
        "ECCENTRICITY": 0.0001418,
        "INCLINATION": 98.717,
        "RA_OF_ASC_NODE": 298.8281,
        "ARG_OF_PERICENTER": 93.1445,
        "MEAN_ANOMALY": 296.3844,
        "EPHEMERIS_TYPE": 0,
        "CLASSIFICATION_TYPE": "U",
        "NORAD_CAT_ID": 37849,
        "ELEMENT_SET_NO": 999,
        "REV_AT_EPOCH": 52697,
        "BSTAR": 3.6038e-05,
        "MEAN_MOTION_DOT": 3.2e-07,
        "MEAN_MOTION_DDOT": 0
    },
    {
        "OBJECT_NAME": "FENGYUN 2F",
        "OBJECT_ID": "2012-002A",
        "EPOCH": "2021-12-25T04:39:15.108768",
        "MEAN_MOTION": 1.00264405,
        "ECCENTRICITY": 0.0003299,
        "INCLINATION": 3.3683,
        "RA_OF_ASC_NODE": 80.9718,
        "ARG_OF_PERICENTER": 4.7065,
        "MEAN_ANOMALY": 190.1154,
        "EPHEMERIS_TYPE": 0,
        "CLASSIFICATION_TYPE": "U",
        "NORAD_CAT_ID": 38049,
        "ELEMENT_SET_NO": 999,
        "REV_AT_EPOCH": 3649,
        "BSTAR": 0,
        "MEAN_MOTION_DOT": -3.39e-06,
        "MEAN_MOTION_DDOT": 0
    }
]